start=new Date('2023-03-04T00:00:00.000Z').valueOf();
sats=[{"FILE":"3850400","OBJECT_NAME":"STARLINK-1305","TLE_LINE2":"2 45377  53.0549  73.4913 0001202  87.7905 272.3221 15.06433859163645","RCS_SIZE":"LARGE","REV_AT_EPOCH":"16364","MEAN_ANOMALY":"272.3221","RA_OF_ASC_NODE":"73.4913","COUNTRY_CODE":"US","TLE_LINE1":"1 45377U 20019T   23062.73258562  .00015046  00000-0  10259-2 0  9994","INCLINATION":"53.0549","DECAY_DATE":null,"ECCENTRICITY":"0.00012020","OBJECT_TYPE":"PAYLOAD","TIME_SYSTEM":"UTC","CLASSIFICATION_TYPE":"U","MEAN_MOTION_DDOT":"0.0000000000000","LAUNCH_DATE":"2020-03-18","APOAPSIS":"547.942","PERIOD":"95.590","EPHEMERIS_TYPE":"0","REF_FRAME":"TEME","GP_ID":"227430500","EPOCH":"2023-03-03T17:34:55.397568","SEMIMAJOR_AXIS":"6925.245","NORAD_CAT_ID":"45377","PERIAPSIS":"546.277","MEAN_MOTION":"15.06433859","ARG_OF_PERICENTER":"87.7905","ELEMENT_SET_NO":"999","SITE":"AFETR","BSTAR":"0.00102590000000","MEAN_ELEMENT_THEORY":"SGP4","MEAN_MOTION_DOT":"0.00015046","CENTER_NAME":"EARTH","OBJECT_ID":"2020-019T"},{"TLE_LINE2":"2 45378  53.0535  73.5432 0002342  86.6124 273.5133 15.06395476163642","RCS_SIZE":"LARGE","OBJECT_NAME":"STARLINK-1310","FILE":"3850400","REV_AT_EPOCH":"16364","COUNTRY_CODE":"US","RA_OF_ASC_NODE":"73.5432","MEAN_ANOMALY":"273.5133","ECCENTRICITY":"0.00023420","DECAY_DATE":null,"INCLINATION":"53.0535","TLE_LINE1":"1 45378U 20019U   23062.72152922  .00018342  00000-0  12472-2 0  9998","TIME_SYSTEM":"UTC","OBJECT_TYPE":"PAYLOAD","MEAN_MOTION_DDOT":"0.0000000000000","CLASSIFICATION_TYPE":"U","PERIOD":"95.592","APOAPSIS":"548.849","LAUNCH_DATE":"2020-03-18","REF_FRAME":"TEME","EPHEMERIS_TYPE":"0","NORAD_CAT_ID":"45378","SEMIMAJOR_AXIS":"6925.362","EPOCH":"2023-03-03T17:19:00.124608","GP_ID":"227431252","PERIAPSIS":"545.606","MEAN_MOTION":"15.06395476","ELEMENT_SET_NO":"999","ARG_OF_PERICENTER":"86.6124","SITE":"AFETR","OBJECT_ID":"2020-019U","CENTER_NAME":"EARTH","MEAN_MOTION_DOT":"0.00018342","BSTAR":"0.00124720000000","MEAN_ELEMENT_THEORY":"SGP4"},{"RA_OF_ASC_NODE":"73.5290","MEAN_ANOMALY":"278.2125","COUNTRY_CODE":"US","OBJECT_NAME":"STARLINK-1319","FILE":"3850400","RCS_SIZE":"LARGE","TLE_LINE2":"2 45379  53.0541  73.5290 0001657  81.9052 278.2125 15.06437015163647","REV_AT_EPOCH":"16364","TIME_SYSTEM":"UTC","OBJECT_TYPE":"PAYLOAD","MEAN_MOTION_DDOT":"0.0000000000000","CLASSIFICATION_TYPE":"U","DECAY_DATE":null,"INCLINATION":"53.0541","TLE_LINE1":"1 45379U 20019V   23062.72520936  .00012324  00000-0  84396-3 0  9992","ECCENTRICITY":"0.00016570","EPOCH":"2023-03-03T17:24:18.088704","GP_ID":"227431003","NORAD_CAT_ID":"45379","SEMIMAJOR_AXIS":"6925.235","PERIAPSIS":"545.953","LAUNCH_DATE":"2020-03-18","PERIOD":"95.590","APOAPSIS":"548.248","EPHEMERIS_TYPE":"0","REF_FRAME":"TEME","SITE":"AFETR","MEAN_MOTION_DOT":"0.00012324","MEAN_ELEMENT_THEORY":"SGP4","BSTAR":"0.00084396000000","OBJECT_ID":"2020-019V","CENTER_NAME":"EARTH","MEAN_MOTION":"15.06437015","ARG_OF_PERICENTER":"81.9052","ELEMENT_SET_NO":"999"},{"PERIAPSIS":"546.071","EPOCH":"2023-03-03T10:59:29.700096","GP_ID":"227399263","NORAD_CAT_ID":"45380","SEMIMAJOR_AXIS":"6925.156","EPHEMERIS_TYPE":"0","REF_FRAME":"TEME","LAUNCH_DATE":"2020-03-18","APOAPSIS":"547.971","PERIOD":"95.588","MEAN_MOTION_DOT":"0.00032663","MEAN_ELEMENT_THEORY":"SGP4","BSTAR":"0.00219780000000","OBJECT_ID":"2020-019W","CENTER_NAME":"EARTH","SITE":"AFETR","ARG_OF_PERICENTER":"92.9012","ELEMENT_SET_NO":"999","MEAN_MOTION":"15.06462914","RA_OF_ASC_NODE":"54.7302","MEAN_ANOMALY":"267.2134","COUNTRY_CODE":"US","REV_AT_EPOCH":"16387","OBJECT_NAME":"STARLINK-1207","FILE":"3850163","TLE_LINE2":"2 45380  53.0537  54.7302 0001372  92.9012 267.2134 15.06462914163870","RCS_SIZE":"LARGE","MEAN_MOTION_DDOT":"0.0000000000000","CLASSIFICATION_TYPE":"U","TIME_SYSTEM":"UTC","OBJECT_TYPE":"PAYLOAD","DECAY_DATE":null,"INCLINATION":"53.0537","TLE_LINE1":"1 45380U 20019W   23062.45798264  .00032663  00000-0  21978-2 0  9999","ECCENTRICITY":"0.00013720"},{"ECCENTRICITY":"0.00021430","DECAY_DATE":null,"TLE_LINE1":"1 45381U 20019X   23062.66808480 -.00000865  00000-0 -39136-4 0  9993","INCLINATION":"53.0529","TIME_SYSTEM":"UTC","OBJECT_TYPE":"PAYLOAD","MEAN_MOTION_DDOT":"0.0000000000000","CLASSIFICATION_TYPE":"U","RCS_SIZE":"LARGE","TLE_LINE2":"2 45381  53.0529  53.7883 0002143  80.8848 279.2383 15.06408278163901","FILE":"3850400","OBJECT_NAME":"STARLINK-1258","REV_AT_EPOCH":"16390","COUNTRY_CODE":"US","RA_OF_ASC_NODE":"53.7883","MEAN_ANOMALY":"279.2383","MEAN_MOTION":"15.06408278","ELEMENT_SET_NO":"999","ARG_OF_PERICENTER":"80.8848","SITE":"AFETR","OBJECT_ID":"2020-019X","CENTER_NAME":"EARTH","MEAN_MOTION_DOT":"-0.00000865","MEAN_ELEMENT_THEORY":"SGP4","BSTAR":"-0.00003913600000","APOAPSIS":"548.672","PERIOD":"95.592","LAUNCH_DATE":"2020-03-18","REF_FRAME":"TEME","EPHEMERIS_TYPE":"0","NORAD_CAT_ID":"45381","SEMIMAJOR_AXIS":"6925.323","EPOCH":"2023-03-03T16:02:02.526720","GP_ID":"227430002","PERIAPSIS":"545.704"},{"OBJECT_NAME":"STARLINK-1264","FILE":"3850400","RCS_SIZE":"LARGE","TLE_LINE2":"2 45382  53.0485  49.1703 0004310  87.5652 272.5834 15.15457928163798","REV_AT_EPOCH":"16379","MEAN_ANOMALY":"272.5834","RA_OF_ASC_NODE":"49.1703","COUNTRY_CODE":"US","TLE_LINE1":"1 45382U 20019Y   23062.68082685  .00048742  00000-0  25450-2 0  9993","INCLINATION":"53.0485","DECAY_DATE":null,"ECCENTRICITY":"0.00043100","OBJECT_TYPE":"PAYLOAD","TIME_SYSTEM":"UTC","CLASSIFICATION_TYPE":"U","MEAN_MOTION_DDOT":"0.0000000000000","LAUNCH_DATE":"2020-03-18","APOAPSIS":"522.564","PERIOD":"95.021","EPHEMERIS_TYPE":"0","REF_FRAME":"TEME","GP_ID":"227430753","EPOCH":"2023-03-03T16:20:23.439840","SEMIMAJOR_AXIS":"6897.726","NORAD_CAT_ID":"45382","PERIAPSIS":"516.618","MEAN_MOTION":"15.15457928","ARG_OF_PERICENTER":"87.5652","ELEMENT_SET_NO":"999","SITE":"AFETR","MEAN_ELEMENT_THEORY":"SGP4","BSTAR":"0.00254500000000","MEAN_MOTION_DOT":"0.00048742","CENTER_NAME":"EARTH","OBJECT_ID":"2020-019Y"},{"EPHEMERIS_TYPE":"0","REF_FRAME":"TEME","LAUNCH_DATE":"2020-03-18","APOAPSIS":"548.121","PERIOD":"95.591","PERIAPSIS":"546.171","EPOCH":"2023-03-03T15:51:26.859456","GP_ID":"227431503","NORAD_CAT_ID":"45383","SEMIMAJOR_AXIS":"6925.281","ARG_OF_PERICENTER":"89.1395","ELEMENT_SET_NO":"999","MEAN_MOTION":"15.06422014","MEAN_MOTION_DOT":"0.00031016","BSTAR":"0.00209070000000","MEAN_ELEMENT_THEORY":"SGP4","OBJECT_ID":"2020-019Z","CENTER_NAME":"EARTH","SITE":"AFETR","REV_AT_EPOCH":"16390","FILE":"3850400","OBJECT_NAME":"STARLINK-1266","TLE_LINE2":"2 45383  53.0537  53.8239 0001408  89.1395 270.9755 15.06422014163905","RCS_SIZE":"LARGE","RA_OF_ASC_NODE":"53.8239","MEAN_ANOMALY":"270.9755","COUNTRY_CODE":"US","DECAY_DATE":null,"INCLINATION":"53.0537","TLE_LINE1":"1 45383U 20019Z   23062.66072754  .00031016  00000-0  20907-2 0  9996","ECCENTRICITY":"0.00014080","MEAN_MOTION_DDOT":"0.0000000000000","CLASSIFICATION_TYPE":"U","TIME_SYSTEM":"UTC","OBJECT_TYPE":"PAYLOAD"},{"TLE_LINE1":"1 45384U 20019AA  23062.31697313  .00011906  00000-0  81623-3 0  9992","INCLINATION":"53.0537","DECAY_DATE":null,"ECCENTRICITY":"0.00010370","OBJECT_TYPE":"PAYLOAD","TIME_SYSTEM":"UTC","CLASSIFICATION_TYPE":"U","MEAN_MOTION_DDOT":"0.0000000000000","FILE":"3850163","OBJECT_NAME":"STARLINK-1267","TLE_LINE2":"2 45384  53.0537  55.3560 0001037  91.6575 268.4533 15.06425865163853","RCS_SIZE":"LARGE","REV_AT_EPOCH":"16385","MEAN_ANOMALY":"268.4533","RA_OF_ASC_NODE":"55.3560","COUNTRY_CODE":"US","MEAN_MOTION":"15.06425865","ARG_OF_PERICENTER":"91.6575","ELEMENT_SET_NO":"999","SITE":"AFETR","MEAN_ELEMENT_THEORY":"SGP4","BSTAR":"0.00081623000000","MEAN_MOTION_DOT":"0.00011906","CENTER_NAME":"EARTH","OBJECT_ID":"2020-019AA","LAUNCH_DATE":"2020-03-18","APOAPSIS":"547.852","PERIOD":"95.590","EPHEMERIS_TYPE":"0","REF_FRAME":"TEME","GP_ID":"227399761","EPOCH":"2023-03-03T07:36:26.478432","SEMIMAJOR_AXIS":"6925.269","NORAD_CAT_ID":"45384","PERIAPSIS":"546.416"},{"REF_FRAME":"TEME","EPHEMERIS_TYPE":"0","APOAPSIS":"547.866","PERIOD":"95.590","LAUNCH_DATE":"2020-03-18","PERIAPSIS":"546.327","NORAD_CAT_ID":"45386","SEMIMAJOR_AXIS":"6925.232","EPOCH":"2023-03-03T09:18:38.885184","GP_ID":"227399997","ELEMENT_SET_NO":"999","ARG_OF_PERICENTER":"98.6176","MEAN_MOTION":"15.06438116","OBJECT_ID":"2020-019AC","CENTER_NAME":"EARTH","MEAN_MOTION_DOT":"0.00020672","MEAN_ELEMENT_THEORY":"SGP4","BSTAR":"0.00140120000000","SITE":"AFETR","REV_AT_EPOCH":"16386","TLE_LINE2":"2 45386  53.0541  55.0393 0001111  98.6176 261.4939 15.06438116163865","RCS_SIZE":"LARGE","FILE":"3850163","OBJECT_NAME":"STARLINK-1272","COUNTRY_CODE":"US","RA_OF_ASC_NODE":"55.0393","MEAN_ANOMALY":"261.4939","ECCENTRICITY":"0.00011110","DECAY_DATE":null,"INCLINATION":"53.0541","TLE_LINE1":"1 45386U 20019AC  23062.38795006  .00020672  00000-0  14012-2 0  9996","MEAN_MOTION_DDOT":"0.0000000000000","CLASSIFICATION_TYPE":"U","TIME_SYSTEM":"UTC","OBJECT_TYPE":"PAYLOAD"},{"ELEMENT_SET_NO":"999","ARG_OF_PERICENTER":"92.6933","MEAN_MOTION":"15.06406801","CENTER_NAME":"EARTH","OBJECT_ID":"2020-019AD","BSTAR":"0.00061749000000","MEAN_ELEMENT_THEORY":"SGP4","MEAN_MOTION_DOT":"0.00008930","SITE":"AFETR","REF_FRAME":"TEME","EPHEMERIS_TYPE":"0","APOAPSIS":"548.274","PERIOD":"95.592","LAUNCH_DATE":"2020-03-18","PERIAPSIS":"546.111","SEMIMAJOR_AXIS":"6925.328","NORAD_CAT_ID":"45387","GP_ID":"227431253","EPOCH":"2023-03-03T16:12:39.425184","ECCENTRICITY":"0.00015620","INCLINATION":"53.0534","TLE_LINE1":"1 45387U 20019AD  23062.67545631  .00008930  00000-0  61749-3 0  9999","DECAY_DATE":null,"CLASSIFICATION_TYPE":"U","MEAN_MOTION_DDOT":"0.0000000000000","OBJECT_TYPE":"PAYLOAD","TIME_SYSTEM":"UTC","REV_AT_EPOCH":"16390","RCS_SIZE":"LARGE","TLE_LINE2":"2 45387  53.0534  53.7496 0001562  92.6933 267.4235 15.06406801163908","OBJECT_NAME":"STARLINK-1274","FILE":"3850400","COUNTRY_CODE":"US","MEAN_ANOMALY":"267.4235","RA_OF_ASC_NODE":"53.7496"}];
